STARLINK-35964          
1 66796U 25278F   25357.89553082  .00422691  00000+0  20063-2 0  9996
2 66796  42.9911 182.6388 0001650 276.6830  83.3854 15.80993067  3611
STARLINK-36099          
1 66797U 25278G   25358.00001157  .00125173  00000+0  21124-2 0  9996
2 66797  43.0000 184.3510 0001788 267.6460 113.3588 15.50486470  4824
STARLINK-36041          
1 66798U 25278H   25358.00001157  .00033722  00000+0  57875-3 0  9998
2 66798  42.9998 184.3462 0002047 268.5240 114.3726 15.50549326  4612
STARLINK-36044          
1 66799U 25278J   25358.00001157  .00116713  00000+0  19724-2 0  9991
2 66799  42.9999 184.3411 0001609 264.3487 120.5122 15.50483043  4766
STARLINK-35996          
1 66800U 25278K   25358.00001157  .00118060  00000+0  19949-2 0  9990
2 66800  42.9998 184.3312 0001497 274.6083 114.0893 15.50481575  4557
STARLINK-36080          
1 66801U 25278L   25358.00001157  .00126789  00000+0  21392-2 0  9993
2 66801  42.9999 184.3066 0002077 267.4184 130.8423 15.50486643  4761
STARLINK-35604          
1 66802U 25278M   25358.00001157  .00127274  00000+0  21475-2 0  9996
2 66802  42.9997 184.3360 0002002 269.7466 117.0200 15.50482144  4765
STARLINK-35565          
1 66803U 25278N   25358.00001157 -.02013957  00000+0 -38661-1 0  9997
2 66803  42.9990 184.3267 0001928 269.7741 120.7617 15.50429579  4853
STARLINK-36038          
1 66804U 25278P   25358.00001157 -.01541628  00000+0 -28841-1 0  9997
2 66804  42.9996 184.3224 0001566 292.6547  99.8096 15.50822678  4764
STARLINK-36049          
1 66805U 25278Q   25358.00001157  .00123281  00000+0  20809-2 0  9993
2 66805  42.9998 184.3110 0002087 266.5932 129.7492 15.50488496  4767
STARLINK-36069          
1 66806U 25278R   25358.00001157  .00000628  00000+0  16546-4 0  9998
2 66806  42.9996 184.3160 0002169 268.1807 126.2261 15.50554677  4560
STARLINK-36000          
1 66807U 25278S   25358.00001157  .00118119  00000+0  19950-2 0  9994
2 66807  42.9997 184.3021 0001701 263.2761 136.8943 15.50494238  4823
