CCSDS_OMM_VERS = 2.0
CREATION_DATE  = 
ORIGINATOR     = 

OBJECT_NAME    = STARLINK-35964
OBJECT_ID      = 2025-278F
CENTER_NAME    = EARTH
REF_FRAME      = TEME
TIME_SYSTEM    = UTC
MEAN_ELEMENT_THEORY = SGP/SGP4

EPOCH          = 2025-12-23T21:29:33.862848
MEAN_MOTION    = 15.80993067
ECCENTRICITY   = .000165
INCLINATION    = 42.9911
RA_OF_ASC_NODE = 182.6388
ARG_OF_PERICENTER = 276.6830
MEAN_ANOMALY   = 83.3854

EPHEMERIS_TYPE = 0
CLASSIFICATION_TYPE = U
NORAD_CAT_ID   = 66796
ELEMENT_SET_NO = 999
REV_AT_EPOCH   = 361
BSTAR          = .20063479E-2
MEAN_MOTION_DOT = .422691E-2
MEAN_MOTION_DDOT = 0

CCSDS_OMM_VERS = 2.0
CREATION_DATE  = 
ORIGINATOR     = 

OBJECT_NAME    = STARLINK-36099
OBJECT_ID      = 2025-278G
CENTER_NAME    = EARTH
REF_FRAME      = TEME
TIME_SYSTEM    = UTC
MEAN_ELEMENT_THEORY = SGP/SGP4

EPOCH          = 2025-12-24T00:00:00.999648
MEAN_MOTION    = 15.50486470
ECCENTRICITY   = .00017881
INCLINATION    = 43.0000
RA_OF_ASC_NODE = 184.3510
ARG_OF_PERICENTER = 267.6460
MEAN_ANOMALY   = 113.3588

EPHEMERIS_TYPE = 0
CLASSIFICATION_TYPE = U
NORAD_CAT_ID   = 66797
ELEMENT_SET_NO = 999
REV_AT_EPOCH   = 482
BSTAR          = .21124332E-2
MEAN_MOTION_DOT = .125173E-2
MEAN_MOTION_DDOT = 0

CCSDS_OMM_VERS = 2.0
CREATION_DATE  = 
ORIGINATOR     = 

OBJECT_NAME    = STARLINK-36041
OBJECT_ID      = 2025-278H
CENTER_NAME    = EARTH
REF_FRAME      = TEME
TIME_SYSTEM    = UTC
MEAN_ELEMENT_THEORY = SGP/SGP4

EPOCH          = 2025-12-24T00:00:00.999648
MEAN_MOTION    = 15.50549326
ECCENTRICITY   = .00020475
INCLINATION    = 42.9998
RA_OF_ASC_NODE = 184.3462
ARG_OF_PERICENTER = 268.5240
MEAN_ANOMALY   = 114.3726

EPHEMERIS_TYPE = 0
CLASSIFICATION_TYPE = U
NORAD_CAT_ID   = 66798
ELEMENT_SET_NO = 999
REV_AT_EPOCH   = 461
BSTAR          = .57874544E-3
MEAN_MOTION_DOT = .33722E-3
MEAN_MOTION_DDOT = 0

CCSDS_OMM_VERS = 2.0
CREATION_DATE  = 
ORIGINATOR     = 

OBJECT_NAME    = STARLINK-36044
OBJECT_ID      = 2025-278J
CENTER_NAME    = EARTH
REF_FRAME      = TEME
TIME_SYSTEM    = UTC
MEAN_ELEMENT_THEORY = SGP/SGP4

EPOCH          = 2025-12-24T00:00:00.999648
MEAN_MOTION    = 15.50483043
ECCENTRICITY   = .00016095
INCLINATION    = 42.9999
RA_OF_ASC_NODE = 184.3411
ARG_OF_PERICENTER = 264.3487
MEAN_ANOMALY   = 120.5122

EPHEMERIS_TYPE = 0
CLASSIFICATION_TYPE = U
NORAD_CAT_ID   = 66799
ELEMENT_SET_NO = 999
REV_AT_EPOCH   = 476
BSTAR          = .19724342E-2
MEAN_MOTION_DOT = .116713E-2
MEAN_MOTION_DDOT = 0

CCSDS_OMM_VERS = 2.0
CREATION_DATE  = 
ORIGINATOR     = 

OBJECT_NAME    = STARLINK-35996
OBJECT_ID      = 2025-278K
CENTER_NAME    = EARTH
REF_FRAME      = TEME
TIME_SYSTEM    = UTC
MEAN_ELEMENT_THEORY = SGP/SGP4

EPOCH          = 2025-12-24T00:00:00.999648
MEAN_MOTION    = 15.50481575
ECCENTRICITY   = .00014977
INCLINATION    = 42.9998
RA_OF_ASC_NODE = 184.3312
ARG_OF_PERICENTER = 274.6083
MEAN_ANOMALY   = 114.0893

EPHEMERIS_TYPE = 0
CLASSIFICATION_TYPE = U
NORAD_CAT_ID   = 66800
ELEMENT_SET_NO = 999
REV_AT_EPOCH   = 455
BSTAR          = .19949109E-2
MEAN_MOTION_DOT = .11806E-2
MEAN_MOTION_DDOT = 0

CCSDS_OMM_VERS = 2.0
CREATION_DATE  = 
ORIGINATOR     = 

OBJECT_NAME    = STARLINK-36080
OBJECT_ID      = 2025-278L
CENTER_NAME    = EARTH
REF_FRAME      = TEME
TIME_SYSTEM    = UTC
MEAN_ELEMENT_THEORY = SGP/SGP4

EPOCH          = 2025-12-24T00:00:00.999648
MEAN_MOTION    = 15.50486643
ECCENTRICITY   = .00020777
INCLINATION    = 42.9999
RA_OF_ASC_NODE = 184.3066
ARG_OF_PERICENTER = 267.4184
MEAN_ANOMALY   = 130.8423

EPHEMERIS_TYPE = 0
CLASSIFICATION_TYPE = U
NORAD_CAT_ID   = 66801
ELEMENT_SET_NO = 999
REV_AT_EPOCH   = 476
BSTAR          = .21391523E-2
MEAN_MOTION_DOT = .126789E-2
MEAN_MOTION_DDOT = 0

CCSDS_OMM_VERS = 2.0
CREATION_DATE  = 
ORIGINATOR     = 

OBJECT_NAME    = STARLINK-35604
OBJECT_ID      = 2025-278M
CENTER_NAME    = EARTH
REF_FRAME      = TEME
TIME_SYSTEM    = UTC
MEAN_ELEMENT_THEORY = SGP/SGP4

EPOCH          = 2025-12-24T00:00:00.999648
MEAN_MOTION    = 15.50482144
ECCENTRICITY   = .00020029
INCLINATION    = 42.9997
RA_OF_ASC_NODE = 184.3360
ARG_OF_PERICENTER = 269.7466
MEAN_ANOMALY   = 117.0200

EPHEMERIS_TYPE = 0
CLASSIFICATION_TYPE = U
NORAD_CAT_ID   = 66802
ELEMENT_SET_NO = 999
REV_AT_EPOCH   = 476
BSTAR          = .21475248E-2
MEAN_MOTION_DOT = .127274E-2
MEAN_MOTION_DDOT = 0

CCSDS_OMM_VERS = 2.0
CREATION_DATE  = 
ORIGINATOR     = 

OBJECT_NAME    = STARLINK-35565
OBJECT_ID      = 2025-278N
CENTER_NAME    = EARTH
REF_FRAME      = TEME
TIME_SYSTEM    = UTC
MEAN_ELEMENT_THEORY = SGP/SGP4

EPOCH          = 2025-12-24T00:00:00.999648
MEAN_MOTION    = 15.50429579
ECCENTRICITY   = .00019281
INCLINATION    = 42.9990
RA_OF_ASC_NODE = 184.3267
ARG_OF_PERICENTER = 269.7741
MEAN_ANOMALY   = 120.7617

EPHEMERIS_TYPE = 0
CLASSIFICATION_TYPE = U
NORAD_CAT_ID   = 66803
ELEMENT_SET_NO = 999
REV_AT_EPOCH   = 485
BSTAR          = -.38661036E-1
MEAN_MOTION_DOT = -.2013957E-1
MEAN_MOTION_DDOT = 0

CCSDS_OMM_VERS = 2.0
CREATION_DATE  = 
ORIGINATOR     = 

OBJECT_NAME    = STARLINK-36038
OBJECT_ID      = 2025-278P
CENTER_NAME    = EARTH
REF_FRAME      = TEME
TIME_SYSTEM    = UTC
MEAN_ELEMENT_THEORY = SGP/SGP4

EPOCH          = 2025-12-24T00:00:00.999648
MEAN_MOTION    = 15.50822678
ECCENTRICITY   = .00015662
INCLINATION    = 42.9996
RA_OF_ASC_NODE = 184.3224
ARG_OF_PERICENTER = 292.6547
MEAN_ANOMALY   = 99.8096

EPHEMERIS_TYPE = 0
CLASSIFICATION_TYPE = U
NORAD_CAT_ID   = 66804
ELEMENT_SET_NO = 999
REV_AT_EPOCH   = 476
BSTAR          = -.28841005E-1
MEAN_MOTION_DOT = -.1541628E-1
MEAN_MOTION_DDOT = 0

CCSDS_OMM_VERS = 2.0
CREATION_DATE  = 
ORIGINATOR     = 

OBJECT_NAME    = STARLINK-36049
OBJECT_ID      = 2025-278Q
CENTER_NAME    = EARTH
REF_FRAME      = TEME
TIME_SYSTEM    = UTC
MEAN_ELEMENT_THEORY = SGP/SGP4

EPOCH          = 2025-12-24T00:00:00.999648
MEAN_MOTION    = 15.50488496
ECCENTRICITY   = .00020872
INCLINATION    = 42.9998
RA_OF_ASC_NODE = 184.3110
ARG_OF_PERICENTER = 266.5932
MEAN_ANOMALY   = 129.7492

EPHEMERIS_TYPE = 0
CLASSIFICATION_TYPE = U
NORAD_CAT_ID   = 66805
ELEMENT_SET_NO = 999
REV_AT_EPOCH   = 476
BSTAR          = .20809196E-2
MEAN_MOTION_DOT = .123281E-2
MEAN_MOTION_DDOT = 0

CCSDS_OMM_VERS = 2.0
CREATION_DATE  = 
ORIGINATOR     = 

OBJECT_NAME    = STARLINK-36069
OBJECT_ID      = 2025-278R
CENTER_NAME    = EARTH
REF_FRAME      = TEME
TIME_SYSTEM    = UTC
MEAN_ELEMENT_THEORY = SGP/SGP4

EPOCH          = 2025-12-24T00:00:00.999648
MEAN_MOTION    = 15.50554677
ECCENTRICITY   = .0002169
INCLINATION    = 42.9996
RA_OF_ASC_NODE = 184.3160
ARG_OF_PERICENTER = 268.1807
MEAN_ANOMALY   = 126.2261

EPHEMERIS_TYPE = 0
CLASSIFICATION_TYPE = U
NORAD_CAT_ID   = 66806
ELEMENT_SET_NO = 999
REV_AT_EPOCH   = 456
BSTAR          = .16546099E-4
MEAN_MOTION_DOT = .628E-5
MEAN_MOTION_DDOT = 0

CCSDS_OMM_VERS = 2.0
CREATION_DATE  = 
ORIGINATOR     = 

OBJECT_NAME    = STARLINK-36000
OBJECT_ID      = 2025-278S
CENTER_NAME    = EARTH
REF_FRAME      = TEME
TIME_SYSTEM    = UTC
MEAN_ELEMENT_THEORY = SGP/SGP4

EPOCH          = 2025-12-24T00:00:00.999648
MEAN_MOTION    = 15.50494238
ECCENTRICITY   = .00017015
INCLINATION    = 42.9997
RA_OF_ASC_NODE = 184.3021
ARG_OF_PERICENTER = 263.2761
MEAN_ANOMALY   = 136.8943

EPHEMERIS_TYPE = 0
CLASSIFICATION_TYPE = U
NORAD_CAT_ID   = 66807
ELEMENT_SET_NO = 999
REV_AT_EPOCH   = 482
BSTAR          = .19949701E-2
MEAN_MOTION_DOT = .118119E-2
MEAN_MOTION_DDOT = 0

